{
    "CCSDS_OMM_VERS": "3.0",
    "COMMENT": "GENERATED VIA SPACE-TRACK.ORG API",
    "CREATION_DATE": "2025-11-23T21:08:43",
    "ORIGINATOR": "18 SPCS",
    "OBJECT_NAME": "BEIDOU 3M22",
    "OBJECT_ID": "2019-078B",
    "CENTER_NAME": "EARTH",
    "REF_FRAME": "TEME",
    "TIME_SYSTEM": "UTC",
    "MEAN_ELEMENT_THEORY": "SGP4",
    "EPOCH": "2025-11-23T00:42:03.919392",
    "MEAN_MOTION": "1.86227813",
    "ECCENTRICITY": "0.00037056",
    "INCLINATION": "54.0996",
    "RA_OF_ASC_NODE": "307.0434",
    "ARG_OF_PERICENTER": "8.6621",
    "MEAN_ANOMALY": "351.3358",
    "EPHEMERIS_TYPE": "0",
    "CLASSIFICATION_TYPE": "U",
    "NORAD_CAT_ID": "44794",
    "ELEMENT_SET_NO": "999",
    "REV_AT_EPOCH": "4081",
    "BSTAR": "0.00000000000000",
    "MEAN_MOTION_DOT": "-0.00000055",
    "MEAN_MOTION_DDOT": "0.0000000000000",
    "SEMIMAJOR_AXIS": "27906.507",
    "PERIOD": "773.246",
    "APOAPSIS": "21538.713",
    "PERIAPSIS": "21518.031",
    "OBJECT_TYPE": "PAYLOAD",
    "RCS_SIZE": "LARGE",
    "COUNTRY_CODE": "PRC",
    "LAUNCH_DATE": "2019-11-23",
    "SITE": "XSC",
    "DECAY_DATE": null,
    "FILE": "4896238",
    "GP_ID": "303334455",
    "TLE_LINE0": "0 BEIDOU 3M22",
    "TLE_LINE1": "1 44794U 19078B   25327.02921203 -.00000055  00000-0  00000-0 0  9992",
    "TLE_LINE2": "2 44794  54.0996 307.0434 0003706   8.6621 351.3358  1.86227813 40812"
}